start=new Date('2022-08-07T00:00:00.000Z').valueOf();
sats=[{"MEAN_ANOMALY":"279.7033","SEMIMAJOR_AXIS":"6925.353","CLASSIFICATION_TYPE":"U","TLE_LINE1":"1 46703U 20073AK  22218.85638297 -.00000361  00000-0 -53557-5 0  9997","DECAY_DATE":null,"INCLINATION":"53.0552","APOAPSIS":"548.239","GP_ID":"209724927","COUNTRY_CODE":"US","MEAN_MOTION":"15.06398633","TLE_LINE2":"2 46703  53.0552   6.1691 0001474  80.4123 279.7033 15.06398633 99552","OBJECT_TYPE":"PAYLOAD","TIME_SYSTEM":"UTC","RA_OF_ASC_NODE":"6.1691","OBJECT_NAME":"STARLINK-1803","EPOCH":"2022-08-06T20:33:11.488608","ARG_OF_PERICENTER":"80.4123","EPHEMERIS_TYPE":"0","SITE":"AFETR","NORAD_CAT_ID":"46703","REF_FRAME":"TEME","MEAN_ELEMENT_THEORY":"SGP4","MEAN_MOTION_DOT":"-0.00000361","CENTER_NAME":"EARTH","BSTAR":"-0.00000535570000","MEAN_MOTION_DDOT":"0.0000000000000","RCS_SIZE":"LARGE","FILE":"3530813","LAUNCH_DATE":"2020-10-18","PERIOD":"95.592","ELEMENT_SET_NO":"999","PERIAPSIS":"546.197","ECCENTRICITY":"0.00014740","REV_AT_EPOCH":"9955","OBJECT_ID":"2020-073AK"},{"EPOCH":"2022-08-06T18:28:27.424704","ARG_OF_PERICENTER":"92.8565","SITE":"AFETR","EPHEMERIS_TYPE":"0","MEAN_MOTION_DDOT":"0.0000000000000","RCS_SIZE":"LARGE","MEAN_MOTION_DOT":"-0.00000918","BSTAR":"-0.00004274600000","CENTER_NAME":"EARTH","NORAD_CAT_ID":"46704","REF_FRAME":"TEME","MEAN_ELEMENT_THEORY":"SGP4","REV_AT_EPOCH":"9982","OBJECT_ID":"2020-073AL","LAUNCH_DATE":"2020-10-18","PERIOD":"95.592","ELEMENT_SET_NO":"999","PERIAPSIS":"546.229","ECCENTRICITY":"0.00014390","FILE":"3530813","SEMIMAJOR_AXIS":"6925.360","CLASSIFICATION_TYPE":"U","MEAN_ANOMALY":"267.2589","GP_ID":"209725178","INCLINATION":"53.0564","APOAPSIS":"548.222","DECAY_DATE":null,"TLE_LINE1":"1 46704U 20073AL  22218.76976186 -.00000918  00000-0 -42746-4 0  9995","TLE_LINE2":"2 46704  53.0564 346.5726 0001439  92.8565 267.2589 15.06396234 99827","MEAN_MOTION":"15.06396234","COUNTRY_CODE":"US","OBJECT_NAME":"STARLINK-1804","OBJECT_TYPE":"PAYLOAD","RA_OF_ASC_NODE":"346.5726","TIME_SYSTEM":"UTC"},{"OBJECT_NAME":"STARLINK-1805","OBJECT_TYPE":"PAYLOAD","RA_OF_ASC_NODE":"21.1980","TIME_SYSTEM":"UTC","TLE_LINE2":"2 46705  53.0561  21.1980 0001308  96.5876 263.5262 15.06408840 99345","MEAN_MOTION":"15.06408840","COUNTRY_CODE":"US","GP_ID":"209725429","APOAPSIS":"548.092","INCLINATION":"53.0561","DECAY_DATE":null,"TLE_LINE1":"1 46705U 20073AM  22218.84946668  .00000613  00000-0  60049-4 0  9993","CLASSIFICATION_TYPE":"U","SEMIMAJOR_AXIS":"6925.321","MEAN_ANOMALY":"263.5262","OBJECT_ID":"2020-073AM","REV_AT_EPOCH":"9934","ECCENTRICITY":"0.00013080","PERIAPSIS":"546.281","LAUNCH_DATE":"2020-10-18","PERIOD":"95.592","ELEMENT_SET_NO":"999","FILE":"3530813","RCS_SIZE":"LARGE","MEAN_MOTION_DDOT":"0.0000000000000","CENTER_NAME":"EARTH","BSTAR":"0.00006004900000","MEAN_MOTION_DOT":"0.00000613","MEAN_ELEMENT_THEORY":"SGP4","REF_FRAME":"TEME","NORAD_CAT_ID":"46705","SITE":"AFETR","EPHEMERIS_TYPE":"0","ARG_OF_PERICENTER":"96.5876","EPOCH":"2022-08-06T20:23:13.921152"},{"ARG_OF_PERICENTER":"74.6334","EPOCH":"2022-08-06T19:45:24.839424","EPHEMERIS_TYPE":"0","SITE":"AFETR","MEAN_ELEMENT_THEORY":"SGP4","REF_FRAME":"TEME","NORAD_CAT_ID":"46706","BSTAR":"0.00005407000000","CENTER_NAME":"EARTH","MEAN_MOTION_DOT":"0.00000524","MEAN_MOTION_DDOT":"0.0000000000000","RCS_SIZE":"LARGE","FILE":"3530813","ECCENTRICITY":"0.00012530","PERIAPSIS":"546.342","ELEMENT_SET_NO":"999","LAUNCH_DATE":"2020-10-18","PERIOD":"95.592","OBJECT_ID":"2020-073AN","REV_AT_EPOCH":"9955","MEAN_ANOMALY":"285.4793","CLASSIFICATION_TYPE":"U","SEMIMAJOR_AXIS":"6925.345","TLE_LINE1":"1 46706U 20073AN  22218.82320416  .00000524  00000-0  54070-4 0  9997","DECAY_DATE":null,"APOAPSIS":"548.078","INCLINATION":"53.0564","GP_ID":"209724177","COUNTRY_CODE":"US","MEAN_MOTION":"15.06401124","TLE_LINE2":"2 46706  53.0564   6.3362 0001253  74.6334 285.4793 15.06401124 99556","RA_OF_ASC_NODE":"6.3362","OBJECT_TYPE":"PAYLOAD","TIME_SYSTEM":"UTC","OBJECT_NAME":"STARLINK-1807"},{"PERIAPSIS":"546.262","ECCENTRICITY":"0.00013950","ELEMENT_SET_NO":"999","LAUNCH_DATE":"2020-10-18","PERIOD":"95.592","FILE":"3530813","OBJECT_ID":"2020-073AP","REV_AT_EPOCH":"9982","REF_FRAME":"TEME","MEAN_ELEMENT_THEORY":"SGP4","NORAD_CAT_ID":"46707","MEAN_MOTION_DDOT":"0.0000000000000","RCS_SIZE":"LARGE","CENTER_NAME":"EARTH","BSTAR":"0.00001959500000","MEAN_MOTION_DOT":"0.00000010","SITE":"AFETR","EPHEMERIS_TYPE":"0","ARG_OF_PERICENTER":"102.3469","EPOCH":"2022-08-06T17:56:37.018752","OBJECT_NAME":"STARLINK-1808","TIME_SYSTEM":"UTC","OBJECT_TYPE":"PAYLOAD","RA_OF_ASC_NODE":"346.6726","MEAN_MOTION":"15.06395323","COUNTRY_CODE":"US","TLE_LINE2":"2 46707  53.0551 346.6726 0001395 102.3469 257.7676 15.06395323 99827","DECAY_DATE":null,"TLE_LINE1":"1 46707U 20073AP  22218.74765068  .00000010  00000-0  19595-4 0  9998","GP_ID":"209724427","APOAPSIS":"548.194","INCLINATION":"53.0551","MEAN_ANOMALY":"257.7676","CLASSIFICATION_TYPE":"U","SEMIMAJOR_AXIS":"6925.363"},{"EPHEMERIS_TYPE":"0","SITE":"AFETR","EPOCH":"2022-08-06T19:46:07.046688","ARG_OF_PERICENTER":"94.8676","FILE":"3530813","PERIOD":"95.593","LAUNCH_DATE":"2020-10-18","ELEMENT_SET_NO":"999","ECCENTRICITY":"0.00017300","PERIAPSIS":"546.058","REV_AT_EPOCH":"9933","OBJECT_ID":"2020-073AR","NORAD_CAT_ID":"46709","REF_FRAME":"TEME","MEAN_ELEMENT_THEORY":"SGP4","MEAN_MOTION_DOT":"0.00002146","CENTER_NAME":"EARTH","BSTAR":"0.00016297000000","RCS_SIZE":"LARGE","MEAN_MOTION_DDOT":"0.0000000000000","DECAY_DATE":null,"TLE_LINE1":"1 46709U 20073AR  22218.82369267  .00002146  00000-0  16297-3 0  9997","INCLINATION":"53.0566","APOAPSIS":"548.454","GP_ID":"209725679","MEAN_ANOMALY":"265.2510","SEMIMAJOR_AXIS":"6925.391","CLASSIFICATION_TYPE":"U","RA_OF_ASC_NODE":"21.4539","OBJECT_TYPE":"PAYLOAD","TIME_SYSTEM":"UTC","OBJECT_NAME":"STARLINK-1810","COUNTRY_CODE":"US","MEAN_MOTION":"15.06386135","TLE_LINE2":"2 46709  53.0566  21.4539 0001730  94.8676 265.2510 15.06386135 99331"},{"DECAY_DATE":null,"TLE_LINE1":"1 46710U 20073AS  22218.84209888 -.00001061  00000-0 -52364-4 0  9996","INCLINATION":"53.0565","APOAPSIS":"548.158","GP_ID":"209725930","MEAN_ANOMALY":"303.5532","SEMIMAJOR_AXIS":"6925.328","CLASSIFICATION_TYPE":"U","TIME_SYSTEM":"UTC","OBJECT_TYPE":"PAYLOAD","RA_OF_ASC_NODE":"21.2505","OBJECT_NAME":"STARLINK-1811","COUNTRY_CODE":"US","MEAN_MOTION":"15.06406695","TLE_LINE2":"2 46710  53.0565  21.2505 0001394  56.5590 303.5532 15.06406695 99344","EPHEMERIS_TYPE":"0","SITE":"AFETR","EPOCH":"2022-08-06T20:12:37.343232","ARG_OF_PERICENTER":"56.5590","FILE":"3530813","LAUNCH_DATE":"2020-10-18","PERIOD":"95.592","ELEMENT_SET_NO":"999","PERIAPSIS":"546.228","ECCENTRICITY":"0.00013940","REV_AT_EPOCH":"9934","OBJECT_ID":"2020-073AS","NORAD_CAT_ID":"46710","REF_FRAME":"TEME","MEAN_ELEMENT_THEORY":"SGP4","MEAN_MOTION_DOT":"-0.00001061","CENTER_NAME":"EARTH","BSTAR":"-0.00005236400000","MEAN_MOTION_DDOT":"0.0000000000000","RCS_SIZE":"LARGE"},{"OBJECT_ID":"2020-073AT","REV_AT_EPOCH":"9955","PERIAPSIS":"546.341","ECCENTRICITY":"0.00012200","ELEMENT_SET_NO":"999","LAUNCH_DATE":"2020-10-18","PERIOD":"95.592","FILE":"3530813","RCS_SIZE":"LARGE","MEAN_MOTION_DDOT":"0.0000000000000","BSTAR":"0.00010047000000","CENTER_NAME":"EARTH","MEAN_MOTION_DOT":"0.00001216","MEAN_ELEMENT_THEORY":"SGP4","REF_FRAME":"TEME","NORAD_CAT_ID":"46711","SITE":"AFETR","EPHEMERIS_TYPE":"0","ARG_OF_PERICENTER":"98.8159","EPOCH":"2022-08-06T19:34:47.461440","OBJECT_NAME":"STARLINK-1813","OBJECT_TYPE":"PAYLOAD","TIME_SYSTEM":"UTC","RA_OF_ASC_NODE":"6.3717","TLE_LINE2":"2 46711  53.0568   6.3717 0001220  98.8159 261.2968 15.06409033 99550","MEAN_MOTION":"15.06409033","COUNTRY_CODE":"US","GP_ID":"209724678","APOAPSIS":"548.031","INCLINATION":"53.0568","DECAY_DATE":null,"TLE_LINE1":"1 46711U 20073AT  22218.81582710  .00001216  00000-0  10047-3 0  9993","CLASSIFICATION_TYPE":"U","SEMIMAJOR_AXIS":"6925.321","MEAN_ANOMALY":"261.2968"},{"EPHEMERIS_TYPE":"0","SITE":"AFETR","ARG_OF_PERICENTER":"90.1716","EPOCH":"2022-08-06T19:02:59.013312","FILE":"3530813","PERIAPSIS":"546.160","ECCENTRICITY":"0.00015250","ELEMENT_SET_NO":"999","LAUNCH_DATE":"2020-10-18","PERIOD":"95.592","OBJECT_ID":"2020-073AU","REV_AT_EPOCH":"9954","MEAN_ELEMENT_THEORY":"SGP4","REF_FRAME":"TEME","NORAD_CAT_ID":"46712","CENTER_NAME":"EARTH","BSTAR":"0.00010548000000","MEAN_MOTION_DOT":"0.00001290","MEAN_MOTION_DDOT":"0.0000000000000","RCS_SIZE":"LARGE","TLE_LINE1":"1 46712U 20073AU  22218.79373858  .00001290  00000-0  10548-3 0  9990","DECAY_DATE":null,"APOAPSIS":"548.272","INCLINATION":"53.0555","GP_ID":"209724928","MEAN_ANOMALY":"269.9448","CLASSIFICATION_TYPE":"U","SEMIMAJOR_AXIS":"6925.351","OBJECT_TYPE":"PAYLOAD","TIME_SYSTEM":"UTC","RA_OF_ASC_NODE":"6.5735","OBJECT_NAME":"STARLINK-1814","COUNTRY_CODE":"US","MEAN_MOTION":"15.06399189","TLE_LINE2":"2 46712  53.0555   6.5735 0001525  90.1716 269.9448 15.06399189 99548"},{"OBJECT_ID":"2020-073AV","REV_AT_EPOCH":"9954","FILE":"3530813","ECCENTRICITY":"0.00011660","PERIAPSIS":"546.391","PERIOD":"95.592","LAUNCH_DATE":"2020-10-18","ELEMENT_SET_NO":"999","BSTAR":"0.00007941200000","CENTER_NAME":"EARTH","MEAN_MOTION_DOT":"0.00000902","MEAN_MOTION_DDOT":"0.0000000000000","RCS_SIZE":"LARGE","REF_FRAME":"TEME","MEAN_ELEMENT_THEORY":"SGP4","NORAD_CAT_ID":"46713","EPHEMERIS_TYPE":"0","SITE":"AFETR","ARG_OF_PERICENTER":"71.8425","EPOCH":"2022-08-06T19:01:35.507712","RA_OF_ASC_NODE":"6.4469","OBJECT_TYPE":"PAYLOAD","TIME_SYSTEM":"UTC","OBJECT_NAME":"STARLINK-1815","TLE_LINE2":"2 46713  53.0573   6.4469 0001166  71.8425 288.2691 15.06404986 99542","COUNTRY_CODE":"US","MEAN_MOTION":"15.06404986","APOAPSIS":"548.006","INCLINATION":"53.0573","GP_ID":"209725179","TLE_LINE1":"1 46713U 20073AV  22218.79277208  .00000902  00000-0  79412-4 0  9998","DECAY_DATE":null,"CLASSIFICATION_TYPE":"U","SEMIMAJOR_AXIS":"6925.333","MEAN_ANOMALY":"288.2691"}];
